CCSDS_OMM_VERS = 2.0
CREATION_DATE  = 
ORIGINATOR     = 

OBJECT_NAME    = CZ-2C R/B
OBJECT_ID      = 2022-132E
CENTER_NAME    = EARTH
REF_FRAME      = TEME
TIME_SYSTEM    = UTC
MEAN_ELEMENT_THEORY = SGP/SGP4

EPOCH          = 2026-02-07T22:30:46.915200
MEAN_MOTION    = 15.59278435
ECCENTRICITY   = .00181623
INCLINATION    = 97.2964
RA_OF_ASC_NODE = 41.4165
ARG_OF_PERICENTER = 192.4445
MEAN_ANOMALY   = 167.6366

EPHEMERIS_TYPE = 0
CLASSIFICATION_TYPE = U
NORAD_CAT_ID   = 54039
ELEMENT_SET_NO = 999
REV_AT_EPOCH   = 18573
BSTAR          = .51530282E-3
MEAN_MOTION_DOT = .4084E-3
MEAN_MOTION_DDOT = 0

CCSDS_OMM_VERS = 2.0
CREATION_DATE  = 
ORIGINATOR     = 

OBJECT_NAME    = GSLV R/B
OBJECT_ID      = 2022-138AN
CENTER_NAME    = EARTH
REF_FRAME      = TEME
TIME_SYSTEM    = UTC
MEAN_ELEMENT_THEORY = SGP/SGP4

EPOCH          = 2026-02-07T21:37:12.954432
MEAN_MOTION    = 14.96544177
ECCENTRICITY   = .00193329
INCLINATION    = 87.3862
RA_OF_ASC_NODE = 176.3301
ARG_OF_PERICENTER = 258.7387
MEAN_ANOMALY   = 101.1672

EPHEMERIS_TYPE = 0
CLASSIFICATION_TYPE = U
NORAD_CAT_ID   = 54149
ELEMENT_SET_NO = 999
REV_AT_EPOCH   = 17947
BSTAR          = .33961492E-3
MEAN_MOTION_DOT = .3902E-4
MEAN_MOTION_DDOT = 0

CCSDS_OMM_VERS = 2.0
CREATION_DATE  = 
ORIGINATOR     = 

OBJECT_NAME    = XRISM
OBJECT_ID      = 2023-137A
CENTER_NAME    = EARTH
REF_FRAME      = TEME
TIME_SYSTEM    = UTC
MEAN_ELEMENT_THEORY = SGP/SGP4

EPOCH          = 2026-02-07T15:44:31.833600
MEAN_MOTION    = 15.11125713
ECCENTRICITY   = .000806
INCLINATION    = 31.0017
RA_OF_ASC_NODE = 117.8608
ARG_OF_PERICENTER = 99.0719
MEAN_ANOMALY   = 261.0832

EPHEMERIS_TYPE = 0
CLASSIFICATION_TYPE = U
NORAD_CAT_ID   = 57800
ELEMENT_SET_NO = 999
REV_AT_EPOCH   = 13324
BSTAR          = .46756499E-3
MEAN_MOTION_DOT = .8135E-4
MEAN_MOTION_DDOT = 0

CCSDS_OMM_VERS = 2.0
CREATION_DATE  = 
ORIGINATOR     = 

OBJECT_NAME    = ACS3
OBJECT_ID      = 2024-077B
CENTER_NAME    = EARTH
REF_FRAME      = TEME
TIME_SYSTEM    = UTC
MEAN_ELEMENT_THEORY = SGP/SGP4

EPOCH          = 2026-02-07T21:21:49.176000
MEAN_MOTION    = 13.88366301
ECCENTRICITY   = .00454683
INCLINATION    = 97.2230
RA_OF_ASC_NODE = 346.7011
ARG_OF_PERICENTER = 170.1895
MEAN_ANOMALY   = 190.0167

EPHEMERIS_TYPE = 0
CLASSIFICATION_TYPE = U
NORAD_CAT_ID   = 59588
ELEMENT_SET_NO = 999
REV_AT_EPOCH   = 9006
BSTAR          = .14732365E-1
MEAN_MOTION_DOT = .17809E-3
MEAN_MOTION_DDOT = 0

CCSDS_OMM_VERS = 2.0
CREATION_DATE  = 
ORIGINATOR     = 

OBJECT_NAME    = SZ-21 MODULE
OBJECT_ID      = 2025-246C
CENTER_NAME    = EARTH
REF_FRAME      = TEME
TIME_SYSTEM    = UTC
MEAN_ELEMENT_THEORY = SGP/SGP4

EPOCH          = 2026-02-07T01:01:16.333824
MEAN_MOTION    = 15.66234853
ECCENTRICITY   = .00029827
INCLINATION    = 41.4765
RA_OF_ASC_NODE = 31.6776
ARG_OF_PERICENTER = 280.6957
MEAN_ANOMALY   = 79.3548

EPHEMERIS_TYPE = 0
CLASSIFICATION_TYPE = U
NORAD_CAT_ID   = 66515
ELEMENT_SET_NO = 999
REV_AT_EPOCH   = 1326
BSTAR          = .37768938E-3
MEAN_MOTION_DOT = .3998E-3
MEAN_MOTION_DDOT = 0

